{"type": "FeatureCollection", "features": [ {"type": "Feature", "properties": {"norad_id": 64901, "name": "CO3D 4", "group": "resource", "lat": 26.343611241632555, "lon": 58.98757060562704, "alt_km": 505.18822762909804, "timestamp": "2025-12-12T07:43:20.161661+00:00", "meta": {"OBJECT_NAME": "CO3D 4", "OBJECT_ID": "2025-156C", "EPOCH": "2025-12-09T21:09:17.831232", "MEAN_MOTION": 15.20201124, "ECCENTRICITY": 0.0001172, "INCLINATION": 97.4339, "RA_OF_ASC_NODE": 60.2895, "ARG_OF_PERICENTER": 212.2858, "MEAN_ANOMALY": 147.8306, "EPHEMERIS_TYPE": 0, "CLASSIFICATION_TYPE": "U", "NORAD_CAT_ID": 64901, "ELEMENT_SET_NO": 999, "REV_AT_EPOCH": 2077, "BSTAR": -2.5806744e-05, "MEAN_MOTION_DOT": -6.26e-06, "MEAN_MOTION_DDOT": 0}, "tle": {"line1": "1 64901U 25156C   25343.88145638 -.00000626  00000+0 -25807-4 0  9990", "line2": "2 64901  97.4339  60.2895 0001172 212.2858 147.8306 15.20201124 20779"}}, "geometry": {"type": "Point", "coordinates": [58.98757060562704, 26.343611241632555]}}, {"type": "Feature", "properties": {"norad_id": 64902, "name": "CO3D 2", "group": "resource", "lat": -28.951327939866815, "lon": -121.54812036743263, "alt_km": 511.60032060573303, "timestamp": "2025-12-12T07:43:20.161671+00:00", "meta": {"OBJECT_NAME": "CO3D 2", "OBJECT_ID": "2025-156D", "EPOCH": "2025-12-11T19:44:49.576992", "MEAN_MOTION": 15.20205199, "ECCENTRICITY": 9.831e-05, "INCLINATION": 97.4346, "RA_OF_ASC_NODE": 62.1026, "ARG_OF_PERICENTER": 82.2785, "MEAN_ANOMALY": 277.8562, "EPHEMERIS_TYPE": 0, "CLASSIFICATION_TYPE": "U", "NORAD_CAT_ID": 64902, "ELEMENT_SET_NO": 999, "REV_AT_EPOCH": 2106, "BSTAR": 0.00010250119, "MEAN_MOTION_DOT": 2.152e-05, "MEAN_MOTION_DDOT": 0}, "tle": {"line1": "1 64902U 25156D   25345.82279603  .00002152  00000+0  10250-3 0  9996", "line2": "2 64902  97.4346  62.1026 0000983  82.2785 277.8562 15.20205199 21065"}}, "geometry": {"type": "Point", "coordinates": [-121.54812036743263, -28.951327939866815]}}, {"type": "Feature", "properties": {"norad_id": 64903, "name": "CO3D 1", "group": "resource", "lat": -30.792830423848972, "lon": -121.56589006436776, "alt_km": 461.63862991017413, "timestamp": "2025-12-12T07:43:20.161681+00:00", "meta": {"OBJECT_NAME": "CO3D 1", "OBJECT_ID": "2025-156E", "EPOCH": "2025-12-11T15:00:21.413376", "MEAN_MOTION": 15.2097193, "ECCENTRICITY": 0.00688067, "INCLINATION": 97.3738, "RA_OF_ASC_NODE": 62.1786, "ARG_OF_PERICENTER": 215.787, "MEAN_ANOMALY": 143.8746, "EPHEMERIS_TYPE": 0, "CLASSIFICATION_TYPE": "U", "NORAD_CAT_ID": 64903, "ELEMENT_SET_NO": 999, "REV_AT_EPOCH": 2103, "BSTAR": 0.00049386558, "MEAN_MOTION_DOT": 0.00011603, "MEAN_MOTION_DDOT": 0}, "tle": {"line1": "1 64903U 25156E   25345.62524784  .00011603  00000+0  49387-3 0  9992", "line2": "2 64903  97.3738  62.1786 0068806 215.7870 143.8746 15.20971930 21035"}}, "geometry": {"type": "Point", "coordinates": [-121.56589006436776, -30.792830423848972]}}, {"type": "Feature", "properties": {"norad_id": 66514, "name": "SENTINEL-6B", "group": "resource", "lat": -30.13330317366269, "lon": 148.34758883315007, "alt_km": 1337.254185753066, "timestamp": "2025-12-12T07:43:20.161691+00:00", "meta": {"OBJECT_NAME": "SENTINEL-6B", "OBJECT_ID": "2025-264A", "EPOCH": "2025-12-11T20:39:27.129024", "MEAN_MOTION": 12.81479622, "ECCENTRICITY": 0.00078421, "INCLINATION": 66.0381, "RA_OF_ASC_NODE": 164.2643, "ARG_OF_PERICENTER": 269.1464, "MEAN_ANOMALY": 90.8653, "EPHEMERIS_TYPE": 0, "CLASSIFICATION_TYPE": "U", "NORAD_CAT_ID": 66514, "ELEMENT_SET_NO": 999, "REV_AT_EPOCH": 317, "BSTAR": -0.0052959586, "MEAN_MOTION_DOT": -1.291e-05, "MEAN_MOTION_DDOT": 0}, "tle": {"line1": "1 66514U 25264A   25345.86073066 -.00001291  00000+0 -52960-2 0  9994", "line2": "2 66514  66.0381 164.2643 0007842 269.1464  90.8653 12.81479622  3171"}}, "geometry": {"type": "Point", "coordinates": [148.34758883315007, -30.13330317366269]}}]}